start=new Date('2021-12-19T00:00:00.000Z').valueOf();
sats=[{"OBJECT_ID":"2020-057E","FILE":"3243681","BSTAR":"0.00010556000000","NORAD_CAT_ID":"46121","RA_OF_ASC_NODE":"19.6266","MEAN_ANOMALY":"303.4274","OBJECT_NAME":"STARLINK-1602","TLE_LINE1":"1 46121U 20057E   21352.53465885  .00001291  00000-0  10556-3 0  9998","SEMIMAJOR_AXIS":"6925.331","OBJECT_TYPE":"PAYLOAD","CLASSIFICATION_TYPE":"U","TIME_SYSTEM":"UTC","TLE_LINE2":"2 46121  53.0560  19.6266 0001787  56.6886 303.4274 15.06405876 73901","PERIAPSIS":"545.958","REV_AT_EPOCH":"7390","EPOCH":"2021-12-18T12:49:54.524640","REF_FRAME":"TEME","MEAN_MOTION":"15.06405876","CENTER_NAME":"EARTH","SITE":"AFETR","LAUNCH_DATE":"2020-08-18","ELEMENT_SET_NO":"999","RCS_SIZE":"LARGE","GP_ID":"191940471","ARG_OF_PERICENTER":"56.6886","PERIOD":"95.592","MEAN_ELEMENT_THEORY":"SGP4","ECCENTRICITY":"0.00017870","APOAPSIS":"548.433","EPHEMERIS_TYPE":"0","MEAN_MOTION_DOT":"0.00001291","INCLINATION":"53.0560","DECAY_DATE":null,"COUNTRY_CODE":"US","MEAN_MOTION_DDOT":"0.0000000000000"},{"MEAN_MOTION":"15.06393364","REF_FRAME":"TEME","EPOCH":"2021-12-18T17:49:48.856512","REV_AT_EPOCH":"7488","CENTER_NAME":"EARTH","SITE":"AFETR","RCS_SIZE":"LARGE","ELEMENT_SET_NO":"999","LAUNCH_DATE":"2020-08-18","GP_ID":"191945332","FILE":"3243715","BSTAR":"-0.00005950000000","OBJECT_ID":"2020-057F","NORAD_CAT_ID":"46122","RA_OF_ASC_NODE":"358.6831","MEAN_ANOMALY":"306.2768","TLE_LINE1":"1 46122U 20057F   21352.74292658 -.00001168  00000-0 -59500-4 0  9996","OBJECT_NAME":"STARLINK-1604","SEMIMAJOR_AXIS":"6925.369","OBJECT_TYPE":"PAYLOAD","CLASSIFICATION_TYPE":"U","PERIAPSIS":"545.990","TLE_LINE2":"2 46122  53.0566 358.6831 0001796  53.8387 306.2768 15.06393364 74882","TIME_SYSTEM":"UTC","INCLINATION":"53.0566","DECAY_DATE":null,"COUNTRY_CODE":"US","MEAN_MOTION_DDOT":"0.0000000000000","ARG_OF_PERICENTER":"53.8387","MEAN_ELEMENT_THEORY":"SGP4","PERIOD":"95.593","ECCENTRICITY":"0.00017960","APOAPSIS":"548.478","MEAN_MOTION_DOT":"-0.00001168","EPHEMERIS_TYPE":"0"},{"INCLINATION":"53.0552","DECAY_DATE":null,"COUNTRY_CODE":"US","MEAN_MOTION_DDOT":"0.0000000000000","ARG_OF_PERICENTER":"55.9848","MEAN_ELEMENT_THEORY":"SGP4","PERIOD":"95.593","ECCENTRICITY":"0.00018610","APOAPSIS":"548.522","MEAN_MOTION_DOT":"-0.00001545","EPHEMERIS_TYPE":"0","MEAN_MOTION":"15.06393678","REV_AT_EPOCH":"7543","EPOCH":"2021-12-18T07:55:20.350560","REF_FRAME":"TEME","CENTER_NAME":"EARTH","SITE":"AFETR","RCS_SIZE":"LARGE","ELEMENT_SET_NO":"999","LAUNCH_DATE":"2020-08-18","GP_ID":"191939969","BSTAR":"-0.00008485600000","FILE":"3243681","OBJECT_ID":"2020-057G","RA_OF_ASC_NODE":"0.5409","NORAD_CAT_ID":"46123","MEAN_ANOMALY":"304.1317","OBJECT_NAME":"STARLINK-1605","TLE_LINE1":"1 46123U 20057G   21352.33009665 -.00001545  00000-0 -84856-4 0  9997","OBJECT_TYPE":"PAYLOAD","CLASSIFICATION_TYPE":"U","SEMIMAJOR_AXIS":"6925.368","TLE_LINE2":"2 46123  53.0552   0.5409 0001861  55.9848 304.1317 15.06393678 75437","PERIAPSIS":"545.944","TIME_SYSTEM":"UTC"},{"INCLINATION":"53.0555","DECAY_DATE":null,"MEAN_MOTION_DDOT":"0.0000000000000","COUNTRY_CODE":"US","PERIOD":"95.592","MEAN_ELEMENT_THEORY":"SGP4","ARG_OF_PERICENTER":"50.6604","ECCENTRICITY":"0.00018980","EPHEMERIS_TYPE":"0","MEAN_MOTION_DOT":"0.00001260","APOAPSIS":"548.509","CENTER_NAME":"EARTH","EPOCH":"2021-12-18T19:14:43.362528","REF_FRAME":"TEME","REV_AT_EPOCH":"7489","MEAN_MOTION":"15.06406117","SITE":"AFETR","LAUNCH_DATE":"2020-08-18","ELEMENT_SET_NO":"999","RCS_SIZE":"LARGE","GP_ID":"191945036","FILE":"3243716","OBJECT_ID":"2020-057H","BSTAR":"0.00010345000000","MEAN_ANOMALY":"309.4553","NORAD_CAT_ID":"46124","RA_OF_ASC_NODE":"358.4309","TLE_LINE1":"1 46124U 20057H   21352.80189077  .00001260  00000-0  10345-3 0  9999","OBJECT_NAME":"STARLINK-1614","TIME_SYSTEM":"UTC","PERIAPSIS":"545.880","TLE_LINE2":"2 46124  53.0555 358.4309 0001898  50.6604 309.4553 15.06406117 74899","CLASSIFICATION_TYPE":"U","OBJECT_TYPE":"PAYLOAD","SEMIMAJOR_AXIS":"6925.330"},{"BSTAR":"0.00007606700000","FILE":"3243717","OBJECT_ID":"2020-057J","RA_OF_ASC_NODE":"39.0904","NORAD_CAT_ID":"46125","MEAN_ANOMALY":"290.6933","OBJECT_NAME":"STARLINK-1618","TLE_LINE1":"1 46125U 20057J   21352.65077408  .00000852  00000-0  76067-4 0  9997","SEMIMAJOR_AXIS":"6925.363","OBJECT_TYPE":"PAYLOAD","CLASSIFICATION_TYPE":"U","PERIAPSIS":"546.306","TLE_LINE2":"2 46125  53.0545  39.0904 0001332  69.4199 290.6933 15.06395134 74307","TIME_SYSTEM":"UTC","MEAN_MOTION":"15.06395134","REF_FRAME":"TEME","REV_AT_EPOCH":"7430","EPOCH":"2021-12-18T15:37:06.880512","CENTER_NAME":"EARTH","SITE":"AFETR","RCS_SIZE":"LARGE","ELEMENT_SET_NO":"999","LAUNCH_DATE":"2020-08-18","GP_ID":"191945048","ARG_OF_PERICENTER":"69.4199","MEAN_ELEMENT_THEORY":"SGP4","PERIOD":"95.592","ECCENTRICITY":"0.00013320","APOAPSIS":"548.151","MEAN_MOTION_DOT":"0.00000852","EPHEMERIS_TYPE":"0","INCLINATION":"53.0545","DECAY_DATE":null,"COUNTRY_CODE":"US","MEAN_MOTION_DDOT":"0.0000000000000"},{"SITE":"AFETR","MEAN_MOTION":"15.06399726","EPOCH":"2021-12-18T11:48:53.052480","REF_FRAME":"TEME","REV_AT_EPOCH":"7362","CENTER_NAME":"EARTH","GP_ID":"191940722","ELEMENT_SET_NO":"999","RCS_SIZE":"LARGE","LAUNCH_DATE":"2020-08-18","NORAD_CAT_ID":"46126","RA_OF_ASC_NODE":"39.7528","MEAN_ANOMALY":"311.9747","BSTAR":"-0.00002765200000","FILE":"3243681","OBJECT_ID":"2020-057K","OBJECT_TYPE":"PAYLOAD","SEMIMAJOR_AXIS":"6925.349","CLASSIFICATION_TYPE":"U","PERIAPSIS":"545.924","TLE_LINE2":"2 46126  53.0685  39.7528 0001863  48.1401 311.9747 15.06399726 73626","TIME_SYSTEM":"UTC","TLE_LINE1":"1 46126U 20057K   21352.49228070 -.00000693  00000-0 -27652-4 0  9994","OBJECT_NAME":"STARLINK-1619","DECAY_DATE":null,"INCLINATION":"53.0685","COUNTRY_CODE":"US","MEAN_MOTION_DDOT":"0.0000000000000","ECCENTRICITY":"0.00018630","ARG_OF_PERICENTER":"48.1401","MEAN_ELEMENT_THEORY":"SGP4","PERIOD":"95.592","APOAPSIS":"548.505","MEAN_MOTION_DOT":"-0.00000693","EPHEMERIS_TYPE":"0"},{"GP_ID":"191948769","ELEMENT_SET_NO":"999","RCS_SIZE":"LARGE","LAUNCH_DATE":"2020-08-18","SITE":"AFETR","MEAN_MOTION":"15.06406230","EPOCH":"2021-12-18T19:33:18.246528","REF_FRAME":"TEME","REV_AT_EPOCH":"7461","CENTER_NAME":"EARTH","SEMIMAJOR_AXIS":"6925.329","OBJECT_TYPE":"PAYLOAD","CLASSIFICATION_TYPE":"U","PERIAPSIS":"546.123","TLE_LINE2":"2 46127  53.0545  18.3672 0001547  58.6373 301.4767 15.06406230 74613","TIME_SYSTEM":"UTC","TLE_LINE1":"1 46127U 20057L   21352.81479452  .00002651  00000-0  19674-3 0  9991","OBJECT_NAME":"STARLINK-1621","NORAD_CAT_ID":"46127","RA_OF_ASC_NODE":"18.3672","MEAN_ANOMALY":"301.4767","BSTAR":"0.00019674000000","FILE":"3243854","OBJECT_ID":"2020-057L","COUNTRY_CODE":"US","MEAN_MOTION_DDOT":"0.0000000000000","DECAY_DATE":null,"INCLINATION":"53.0545","APOAPSIS":"548.266","MEAN_MOTION_DOT":"0.00002651","EPHEMERIS_TYPE":"0","ECCENTRICITY":"0.00015470","ARG_OF_PERICENTER":"58.6373","MEAN_ELEMENT_THEORY":"SGP4","PERIOD":"95.592"},{"TIME_SYSTEM":"UTC","PERIAPSIS":"545.954","TLE_LINE2":"2 46128  53.0562   0.0358 0001787  49.2067 310.9077 15.06407048 74172","OBJECT_TYPE":"PAYLOAD","CLASSIFICATION_TYPE":"U","SEMIMAJOR_AXIS":"6925.327","OBJECT_NAME":"STARLINK-1622","TLE_LINE1":"1 46128U 20057M   21352.44435217 -.00000043  00000-0  16032-4 0  9992","MEAN_ANOMALY":"310.9077","RA_OF_ASC_NODE":"0.0358","NORAD_CAT_ID":"46128","BSTAR":"0.00001603200000","FILE":"3243681","OBJECT_ID":"2020-057M","GP_ID":"191939720","LAUNCH_DATE":"2020-08-18","ELEMENT_SET_NO":"999","RCS_SIZE":"LARGE","SITE":"AFETR","CENTER_NAME":"EARTH","REF_FRAME":"TEME","REV_AT_EPOCH":"7417","EPOCH":"2021-12-18T10:39:52.027488","MEAN_MOTION":"15.06407048","EPHEMERIS_TYPE":"0","MEAN_MOTION_DOT":"-0.00000043","APOAPSIS":"548.430","ECCENTRICITY":"0.00017870","PERIOD":"95.592","MEAN_ELEMENT_THEORY":"SGP4","ARG_OF_PERICENTER":"49.2067","MEAN_MOTION_DDOT":"0.0000000000000","COUNTRY_CODE":"US","DECAY_DATE":null,"INCLINATION":"53.0562"},{"GP_ID":"191940472","RCS_SIZE":"LARGE","ELEMENT_SET_NO":"999","LAUNCH_DATE":"2020-08-18","SITE":"AFETR","MEAN_MOTION":"15.06398738","EPOCH":"2021-12-18T11:38:16.262880","REF_FRAME":"TEME","REV_AT_EPOCH":"7418","CENTER_NAME":"EARTH","OBJECT_TYPE":"PAYLOAD","SEMIMAJOR_AXIS":"6925.352","CLASSIFICATION_TYPE":"U","PERIAPSIS":"546.035","TLE_LINE2":"2 46129  53.0555 359.8527 0001708  61.9503 298.1659 15.06398738 74186","TIME_SYSTEM":"UTC","OBJECT_NAME":"STARLINK-1623","TLE_LINE1":"1 46129U 20057N   21352.48491045  .00001677  00000-0  13148-3 0  9995","RA_OF_ASC_NODE":"359.8527","NORAD_CAT_ID":"46129","MEAN_ANOMALY":"298.1659","BSTAR":"0.00013148000000","FILE":"3243681","OBJECT_ID":"2020-057N","COUNTRY_CODE":"US","MEAN_MOTION_DDOT":"0.0000000000000","DECAY_DATE":null,"INCLINATION":"53.0555","APOAPSIS":"548.400","MEAN_MOTION_DOT":"0.00001677","EPHEMERIS_TYPE":"0","ECCENTRICITY":"0.00017080","ARG_OF_PERICENTER":"61.9503","MEAN_ELEMENT_THEORY":"SGP4","PERIOD":"95.592"},{"BSTAR":"0.00011663000000","FILE":"3243681","OBJECT_ID":"2020-057P","MEAN_ANOMALY":"298.1812","NORAD_CAT_ID":"46130","RA_OF_ASC_NODE":"359.6961","OBJECT_NAME":"STARLINK-1624","TLE_LINE1":"1 46130U 20057P   21352.51807586  .00001456  00000-0  11663-3 0  9997","TIME_SYSTEM":"UTC","TLE_LINE2":"2 46130  53.0544 359.6961 0001731  61.9352 298.1812 15.06408151 75435","PERIAPSIS":"545.990","OBJECT_TYPE":"PAYLOAD","SEMIMAJOR_AXIS":"6925.324","CLASSIFICATION_TYPE":"U","CENTER_NAME":"EARTH","EPOCH":"2021-12-18T12:26:01.754304","REF_FRAME":"TEME","REV_AT_EPOCH":"7543","MEAN_MOTION":"15.06408151","SITE":"AFETR","LAUNCH_DATE":"2020-08-18","ELEMENT_SET_NO":"999","RCS_SIZE":"LARGE","GP_ID":"191941222","PERIOD":"95.592","MEAN_ELEMENT_THEORY":"SGP4","ARG_OF_PERICENTER":"61.9352","ECCENTRICITY":"0.00017310","EPHEMERIS_TYPE":"0","MEAN_MOTION_DOT":"0.00001456","APOAPSIS":"548.387","INCLINATION":"53.0544","DECAY_DATE":null,"MEAN_MOTION_DDOT":"0.0000000000000","COUNTRY_CODE":"US"}];
